[
  {
    "OBJECT_NAME": "MERIDIAN 7",
    "OBJECT_ID": "2014-069A",
    "EPOCH": "2023-02-10T09:03:12.822336",
    "MEAN_MOTION": 2.00646816,
    "ECCENTRICITY": 0.7149582,
    "INCLINATION": 63.5928,
    "RA_OF_ASC_NODE": 358.6418,
    "ARG_OF_PERICENTER": 273.8093,
    "MEAN_ANOMALY": 343.7194,
    "EPHEMERIS_TYPE": 0,
    "CLASSIFICATION_TYPE": "U",
    "NORAD_CAT_ID": 40296,
    "ELEMENT_SET_NO": 999,
    "REV_AT_EPOCH": 6069,
    "BSTAR": 0,
    "MEAN_MOTION_DOT": -1.12e-6,
    "MEAN_MOTION_DDOT": 0
  },
  {
    "OBJECT_NAME": "ASNARO",
    "OBJECT_ID": "2014-070A",
    "EPOCH": "2023-02-11T19:24:43.446816",
    "MEAN_MOTION": 15.19459786,
    "ECCENTRICITY": 0.0006385,
    "INCLINATION": 97.4498,
    "RA_OF_ASC_NODE": 127.0655,
    "ARG_OF_PERICENTER": 186.129,
    "MEAN_ANOMALY": 322.0193,
    "EPHEMERIS_TYPE": 0,
    "CLASSIFICATION_TYPE": "U",
    "NORAD_CAT_ID": 40298,
    "ELEMENT_SET_NO": 999,
    "REV_AT_EPOCH": 45854,
    "BSTAR": 0.00091186,
    "MEAN_MOTION_DOT": 0.00019312,
    "MEAN_MOTION_DDOT": 0
  },
  {
    "OBJECT_NAME": "HODOYOSHI-1",
    "OBJECT_ID": "2014-070B",
    "EPOCH": "2023-02-11T19:10:47.648640",
    "MEAN_MOTION": 15.30237507,
    "ECCENTRICITY": 0.0011563,
    "INCLINATION": 97.2129,
    "RA_OF_ASC_NODE": 108.8965,
    "ARG_OF_PERICENTER": 13.5526,
    "MEAN_ANOMALY": 120.6427,
    "EPHEMERIS_TYPE": 0,
    "CLASSIFICATION_TYPE": "U",
    "NORAD_CAT_ID": 40299,
    "ELEMENT_SET_NO": 999,
    "REV_AT_EPOCH": 45961,
    "BSTAR": 0.00054336,
    "MEAN_MOTION_DOT": 0.00015868,
    "MEAN_MOTION_DDOT": 0
  },
  {
    "OBJECT_NAME": "QSAT-EOS",
    "OBJECT_ID": "2014-070D",
    "EPOCH": "2023-02-11T19:49:28.325856",
    "MEAN_MOTION": 15.48902264,
    "ECCENTRICITY": 0.0013701,
    "INCLINATION": 97.1744,
    "RA_OF_ASC_NODE": 111.6527,
    "ARG_OF_PERICENTER": 321.6044,
    "MEAN_ANOMALY": 175.1378,
    "EPHEMERIS_TYPE": 0,
    "CLASSIFICATION_TYPE": "U",
    "NORAD_CAT_ID": 40301,
    "ELEMENT_SET_NO": 999,
    "REV_AT_EPOCH": 46036,
    "BSTAR": 0.00085812,
    "MEAN_MOTION_DOT": 0.00046556,
    "MEAN_MOTION_DDOT": 0
  },
  {
    "OBJECT_NAME": "YAOGAN 23",
    "OBJECT_ID": "2014-071A",
    "EPOCH": "2023-02-11T19:44:55.803840",
    "MEAN_MOTION": 15.25689304,
    "ECCENTRICITY": 0.0003245,
    "INCLINATION": 97.6383,
    "RA_OF_ASC_NODE": 2.8221,
    "ARG_OF_PERICENTER": 72.6723,
    "MEAN_ANOMALY": 14.6013,
    "EPHEMERIS_TYPE": 0,
    "CLASSIFICATION_TYPE": "U",
    "NORAD_CAT_ID": 40305,
    "ELEMENT_SET_NO": 999,
    "REV_AT_EPOCH": 45699,
    "BSTAR": 0.000807,
    "MEAN_MOTION_DOT": 0.00020522,
    "MEAN_MOTION_DDOT": 0
  },
  {
    "OBJECT_NAME": "COSMOS 2501 [GLONASS-K]",
    "OBJECT_ID": "2014-075A",
    "EPOCH": "2023-02-10T04:18:01.118304",
    "MEAN_MOTION": 2.13101367,
    "ECCENTRICITY": 0.0017009,
    "INCLINATION": 63.6575,
    "RA_OF_ASC_NODE": 232.8547,
    "ARG_OF_PERICENTER": 204.2325,
    "MEAN_ANOMALY": 337.885,
    "EPHEMERIS_TYPE": 0,
    "CLASSIFICATION_TYPE": "U",
    "NORAD_CAT_ID": 40315,
    "ELEMENT_SET_NO": 999,
    "REV_AT_EPOCH": 6379,
    "BSTAR": 0,
    "MEAN_MOTION_DOT": 9.0e-7,
    "MEAN_MOTION_DDOT": 0
  },
  {
    "OBJECT_NAME": "GSAT-16",
    "OBJECT_ID": "2014-078A",
    "EPOCH": "2023-02-11T21:56:42.548640",
    "MEAN_MOTION": 1.00273142,
    "ECCENTRICITY": 0.0002982,
    "INCLINATION": 0.1301,
    "RA_OF_ASC_NODE": 275.3435,
    "ARG_OF_PERICENTER": 177.9466,
    "MEAN_ANOMALY": 72.6387,
    "EPHEMERIS_TYPE": 0,
    "CLASSIFICATION_TYPE": "U",
    "NORAD_CAT_ID": 40332,
    "ELEMENT_SET_NO": 999,
    "REV_AT_EPOCH": 2985,
    "BSTAR": 0,
    "MEAN_MOTION_DOT": 9.7e-7,
    "MEAN_MOTION_DDOT": 0
  },
  {
    "OBJECT_NAME": "DIRECTV 14",
    "OBJECT_ID": "2014-078B",
    "EPOCH": "2023-02-10T02:17:39.396768",
    "MEAN_MOTION": 1.00272906,
    "ECCENTRICITY": 7.14e-5,
    "INCLINATION": 0.0216,
    "RA_OF_ASC_NODE": 81.2226,
    "ARG_OF_PERICENTER": 125.741,
    "MEAN_ANOMALY": 228.0979,
    "EPHEMERIS_TYPE": 0,
    "CLASSIFICATION_TYPE": "U",
    "NORAD_CAT_ID": 40333,
    "ELEMENT_SET_NO": 999,
    "REV_AT_EPOCH": 2998,
    "BSTAR": 0,
    "MEAN_MOTION_DOT": -1.15e-6,
    "MEAN_MOTION_DDOT": 0
  },
  {
    "OBJECT_NAME": "CBERS 4",
    "OBJECT_ID": "2014-079A",
    "EPOCH": "2023-02-11T22:02:30.194592",
    "MEAN_MOTION": 14.35468024,
    "ECCENTRICITY": 0.0001652,
    "INCLINATION": 98.458,
    "RA_OF_ASC_NODE": 117.4568,
    "ARG_OF_PERICENTER": 91.0691,
    "MEAN_ANOMALY": 269.07,
    "EPHEMERIS_TYPE": 0,
    "CLASSIFICATION_TYPE": "U",
    "NORAD_CAT_ID": 40336,
    "ELEMENT_SET_NO": 999,
    "REV_AT_EPOCH": 42876,
    "BSTAR": 0.00010572,
    "MEAN_MOTION_DOT": 2.61e-6,
    "MEAN_MOTION_DDOT": 0
  },
  {
    "OBJECT_NAME": "YAOGAN-25 A",
    "OBJECT_ID": "2014-080A",
    "EPOCH": "2023-02-11T22:30:37.167552",
    "MEAN_MOTION": 13.45238402,
    "ECCENTRICITY": 0.0257416,
    "INCLINATION": 63.3948,
    "RA_OF_ASC_NODE": 214.0424,
    "ARG_OF_PERICENTER": 4.0687,
    "MEAN_ANOMALY": 356.235,
    "EPHEMERIS_TYPE": 0,
    "CLASSIFICATION_TYPE": "U",
    "NORAD_CAT_ID": 40338,
    "ELEMENT_SET_NO": 999,
    "REV_AT_EPOCH": 40156,
    "BSTAR": 1.0337e-5,
    "MEAN_MOTION_DOT": -8.3e-7,
    "MEAN_MOTION_DDOT": 0
  },
  {
    "OBJECT_NAME": "YAOGAN-25 B",
    "OBJECT_ID": "2014-080B",
    "EPOCH": "2023-02-11T22:30:57.631392",
    "MEAN_MOTION": 13.45239023,
    "ECCENTRICITY": 0.0257374,
    "INCLINATION": 63.3956,
    "RA_OF_ASC_NODE": 214.1658,
    "ARG_OF_PERICENTER": 3.8941,
    "MEAN_ANOMALY": 356.4008,
    "EPHEMERIS_TYPE": 0,
    "CLASSIFICATION_TYPE": "U",
    "NORAD_CAT_ID": 40339,
    "ELEMENT_SET_NO": 999,
    "REV_AT_EPOCH": 40156,
    "BSTAR": -4.9661e-5,
    "MEAN_MOTION_DOT": -1.26e-6,
    "MEAN_MOTION_DDOT": 0
  },
  {
    "OBJECT_NAME": "YAOGAN-25 C",
    "OBJECT_ID": "2014-080C",
    "EPOCH": "2023-02-11T22:30:51.374304",
    "MEAN_MOTION": 13.45239351,
    "ECCENTRICITY": 0.0257327,
    "INCLINATION": 63.3933,
    "RA_OF_ASC_NODE": 214.6303,
    "ARG_OF_PERICENTER": 4.3811,
    "MEAN_ANOMALY": 355.9383,
    "EPHEMERIS_TYPE": 0,
    "CLASSIFICATION_TYPE": "U",
    "NORAD_CAT_ID": 40340,
    "ELEMENT_SET_NO": 999,
    "REV_AT_EPOCH": 40154,
    "BSTAR": -3.5098e-5,
    "MEAN_MOTION_DOT": -1.16e-6,
    "MEAN_MOTION_DDOT": 0
  },
  {
    "OBJECT_NAME": "YAMAL 401",
    "OBJECT_ID": "2014-082A",
    "EPOCH": "2023-02-10T03:51:32.580000",
    "MEAN_MOTION": 1.00269171,
    "ECCENTRICITY": 0.0001011,
    "INCLINATION": 0.0154,
    "RA_OF_ASC_NODE": 113.0513,
    "ARG_OF_PERICENTER": 343.3495,
    "MEAN_ANOMALY": 191.386,
    "EPHEMERIS_TYPE": 0,
    "CLASSIFICATION_TYPE": "U",
    "NORAD_CAT_ID": 40345,
    "ELEMENT_SET_NO": 999,
    "REV_AT_EPOCH": 2965,
    "BSTAR": 0,
    "MEAN_MOTION_DOT": -2.17e-6,
    "MEAN_MOTION_DDOT": 0
  }
]
