MERIDIAN 7              
1 40296U 14069A   23041.37723174 -.00000112  00000+0  00000+0 0  9998
2 40296  63.5928 358.6418 7149582 273.8093 343.7194  2.00646816 60694
ASNARO                  
1 40298U 14070A   23042.80883619  .00019312  00000+0  91186-3 0  9992
2 40298  97.4498 127.0655 0006385 186.1290 322.0193 15.19459786458542
HODOYOSHI-1             
1 40299U 14070B   23042.79916260  .00015868  00000+0  54336-3 0  9998
2 40299  97.2129 108.8965 0011563  13.5526 120.6427 15.30237507459611
QSAT-EOS                
1 40301U 14070D   23042.82602229  .00046556  00000+0  85812-3 0  9994
2 40301  97.1744 111.6527 0013701 321.6044 175.1378 15.48902264460369
YAOGAN 23               
1 40305U 14071A   23042.82286810  .00020522  00000+0  80700-3 0  9999
2 40305  97.6383   2.8221 0003245  72.6723  14.6013 15.25689304456997
COSMOS 2501 [GLONASS-K] 
1 40315U 14075A   23041.17917961  .00000090  00000+0  00000+0 0  9998
2 40315  63.6575 232.8547 0017009 204.2325 337.8850  2.13101367 63796
GSAT-16                 
1 40332U 14078A   23042.91438135  .00000097  00000+0  00000+0 0  9991
2 40332   0.1301 275.3435 0002982 177.9466  72.6387  1.00273142 29856
DIRECTV 14              
1 40333U 14078B   23041.09559487 -.00000115  00000+0  00000+0 0  9996
2 40333   0.0216  81.2226 0000714 125.7410 228.0979  1.00272906 29989
CBERS 4                 
1 40336U 14079A   23042.91840503  .00000261  00000+0  10572-3 0  9994
2 40336  98.4580 117.4568 0001652  91.0691 269.0700 14.35468024428762
YAOGAN-25 A             
1 40338U 14080A   23042.93793018 -.00000083  00000+0  10337-4 0  9991
2 40338  63.3948 214.0424 0257416   4.0687 356.2350 13.45238402401562
YAOGAN-25 B             
1 40339U 14080B   23042.93816703 -.00000126  00000+0 -49661-4 0  9990
2 40339  63.3956 214.1658 0257374   3.8941 356.4008 13.45239023401567
YAOGAN-25 C             
1 40340U 14080C   23042.93809461 -.00000116  00000+0 -35098-4 0  9993
2 40340  63.3933 214.6303 0257327   4.3811 355.9383 13.45239351401548
YAMAL 401               
1 40345U 14082A   23041.16079375 -.00000217  00000+0  00000+0 0  9998
2 40345   0.0154 113.0513 0001011 343.3495 191.3860  1.00269171 29653
